SL-12 R/B(2)            
1 15772U 85042D   26114.15885154  .00000113  00000+0  72067-4 0  9992
2 15772  71.1097 351.6669 0033384  52.8001 118.5128 14.21994552120856
SL-14 R/B               
1 15945U 85069B   26114.11608128  .00000291  00000+0  30042-4 0  9997
2 15945  82.5277 342.2277 0019900  45.3746 314.9090 14.86475628179589
SL-16 R/B               
1 16182U 85097B   26114.18682391 -.00000190  00000+0 -71186-4 0  9997
2 16182  71.0043  44.7649 0008177 203.9577 258.9815 14.16606672 93677
SL-14 R/B               
1 16496U 86006B   26114.21590898  .00000598  00000+0  60394-4 0  9999
2 16496  82.5293 216.8915 0077791 121.2592 239.6275 14.86888680155970
COSMOS 1743             
1 16719U 86034A   26114.16924387  .00038720  00000+0  43392-3 0  9992
2 16719  82.5327  25.9579 0007525 107.3705 252.8377 15.62469862187348
SL-14 R/B               
1 16792U 86046B   26114.13658444  .00000377  00000+0  40516-4 0  9994
2 16792  82.4843  37.2405 0024670  78.5405 281.8579 14.85632586133156
SL-14 R/B               
1 16882U 86055B   26113.99695509  .00000340  00000+0  36333-4 0  9992
2 16882  82.5184  84.0729 0018874 177.4319 249.7089 14.85680751126097
AJISAI (EGS)            
1 16908U 86061A   26114.17728424 -.00000084  00000+0  92087-4 0  9996
2 16908  50.0102 313.4763 0011425  43.6857  61.8011 12.44515926473669
SL-14 R/B               
1 17567U 87024B   26113.54750943  .00000337  00000+0  35446-4 0  9995
2 17567  82.5295  50.5975 0019742 110.3802 249.9538 14.86172937 94795
COSMOS 1833             
1 17589U 87027A   26113.59962766 -.00000227  00000+0 -95775-4 0  9996
2 17589  70.9164 231.6160 0022429 145.1564 215.1031 14.13034628 16667
SL-16 R/B               
1 17590U 87027B   26114.14862551  .00000232  00000+0  13875-3 0  9995
2 17590  71.0028 180.7015 0003547  29.9708 330.1618 14.17170219 21781
SL-14 R/B               
1 17912U 87038B   26113.63280470  .00000305  00000+0  32494-4 0  9992
2 17912  82.5001 254.4558 0019678  20.4684 339.7316 14.85408089 85907
COSMOS 1844             
1 17973U 87041A   26113.94019558 -.00000305  00000+0 -13302-3 0  9992
2 17973  70.8983 298.7313 0032771 311.5718  48.2595 14.14561471  9986
SL-14 R/B               
1 18153U 87055B   26114.00591693  .00000304  00000+0  32192-4 0  9997
2 18153  82.4968 306.3153 0019608 220.6131 139.3623 14.85667270 76665
COSMOS 1867             
1 18187U 87060A   26113.57172200 -.00000067  00000+0  12330-4 0  9999
2 18187  65.0104 181.0115 0015363 280.9125  79.0231 14.31509495 26365
SL-14 R/B               
1 18749U 88001B   26114.20644338  .00000272  00000+0  28480-4 0  9996
2 18749  82.5126 152.5595 0019662  88.3097 272.0372 14.85569186 48789
COSMOS 1933             
1 18958U 88020A   26114.13579919  .00003251  00000+0  15669-3 0  9997
2 18958  82.5151 205.9408 0005080  57.6215 302.5509 15.18377253 57123
SL-3 R/B                
1 19046U 88032B   26114.15156377  .00003963  00000+0  18348-3 0  9997
2 19046  97.5239  97.2760 0027601  76.5867 283.8442 15.20369456 59010
SL-16 R/B               
1 19120U 88039B   26114.00584369  .00000112  00000+0  75726-4 0  9994
2 19120  71.0153 332.7287 0024083 270.3096  89.5270 14.19623016964810
COSMOS 1953             
1 19210U 88050A   26113.98209654  .00005837  00000+0  20474-3 0  9992
2 19210  82.5052 112.6591 0009654 333.8035  26.2715 15.29186326 44702
SL-8 R/B                
1 19257U 88053B   26114.21334969  .00000150  00000+0  57121-4 0  9994
2 19257  74.0495  28.5498 0020672 200.6942 316.4784 14.38941010983140
COSMOS 1975             
1 19573U 88093A   26113.96534331  .00004708  00000+0  16764-3 0  9995
2 19573  82.5186  72.2034 0011980  21.4175 338.7563 15.28619955 26323
SL-14 R/B               
1 19574U 88093B   26114.13380595  .00000260  00000+0  27167-4 0  9996
2 19574  82.5334 359.3953 0019179 246.1580 227.1750 14.85701878  7766
SL-16 R/B               
1 19650U 88102B   26114.11114322 -.00000167  00000+0 -59956-4 0  9992
2 19650  71.0000  55.9214 0016248 297.0972  62.8493 14.16157478933320
INTERCOSMOS 24          
1 20261U 89080A   26113.92210734  .00000165  00000+0  43649-4 0  9998
2 20261  82.6035  74.9447 1187482 187.7760 170.3379 12.59600005672495
SL-14 R/B               
1 20262U 89080C   26114.16357873  .00000264  00000+0  69724-4 0  9994
2 20262  82.5911 144.0042 1230994  80.8653 292.9328 12.50528044665837
DELTA 1 R/B             
1 20323U 89089B   26114.14406179  .00000180  00000+0  53460-4 0  9990
2 20323  97.0667 314.3403 0068472 340.1620  19.6917 14.50695933902322
ARIANE 40 R/B           
1 20443U 90005H   26114.12124867  .00000147  00000+0  60210-4 0  9996
2 20443  98.3000 173.4084 0011272  71.6371 288.6043 14.39897843899340
DELTA 2 R/B(1)          
1 20453U 90008B   26113.64957519  .00053152  00000+0  51406-3 0  9994
2 20453  35.6014 238.4515 0074851 320.6588  38.8728 15.61698380933154
COSMOS 2058             
1 20465U 90010A   26114.12755387  .00002074  00000+0  12006-3 0  9993
2 20465  82.4695   2.6605 0009553 166.5981 193.5505 15.11688289949100
SL-14 R/B               
1 20466U 90010B   26113.26853721  .00000338  00000+0  37940-4 0  9995
2 20466  82.5038 225.5118 0020613 149.3779 210.8644 14.83609768935095
